{
"type": "FeatureCollection",
"name": "countries_context",
"crs": { "type": "name", "properties": { "name": "urn:ogc:def:crs:OGC:1.3:CRS84" } },
"features": [
{ "type": "Feature", "properties": { "country": "Somalia", "iso3": "SOM", "continent": "Africa", "pop_est_ne": 7531386, "gdp_md_est": 4719.0, "case_role": "regional_neighbor", "source": "Natural Earth low resolution (via pyogrio fixture); public domain; generalized geometry." }, "geometry": { "type": "Polygon", "coordinates": [ [ [ 41.58513, -1.68325 ], [ 40.993, -0.85829 ], [ 40.98105, 2.78452 ], [ 41.855083092643973, 3.918911920483727 ], [ 42.12861, 4.23413 ], [ 42.76967, 4.25259 ], [ 43.66087, 4.95755 ], [ 44.9636, 5.00162 ], [ 47.78942, 8.003 ], [ 48.486735874226952, 8.837626247589995 ], [ 48.938129510296449, 9.451748968946617 ], [ 48.938232863161033, 9.973500067581512 ], [ 48.938491245322496, 10.982327378783467 ], [ 48.942005242718352, 11.394266058798138 ], [ 48.948204758509739, 11.410617281697963 ], [ 48.948204758509853, 11.41061728169797 ], [ 49.26776, 11.43033 ], [ 49.72862, 11.5789 ], [ 50.25878, 11.67957 ], [ 50.73202, 12.0219 ], [ 51.1112, 12.02464 ], [ 51.13387, 11.74815 ], [ 51.04153, 11.16651 ], [ 51.04531, 10.6409 ], [ 50.83418, 10.27972 ], [ 50.55239, 9.19874 ], [ 50.07092, 8.08173 ], [ 49.4527, 6.80466 ], [ 48.59455, 5.33911 ], [ 47.74079, 4.2194 ], [ 46.56476, 2.85529 ], [ 45.56399, 2.04576 ], [ 44.06815, 1.05283 ], [ 43.13597, 0.2922 ], [ 42.04157, -0.91916 ], [ 41.81095, -1.44647 ], [ 41.58513, -1.68325 ] ] ] } },
{ "type": "Feature", "properties": { "country": "Kenya", "iso3": "KEN", "continent": "Africa", "pop_est_ne": 47615739, "gdp_md_est": 152700.0, "case_role": "comparison_hub", "source": "Natural Earth low resolution (via pyogrio fixture); public domain; generalized geometry." }, "geometry": { "type": "Polygon", "coordinates": [ [ [ 39.20222, -4.67677 ], [ 37.7669, -3.67712 ], [ 37.69869, -3.09699 ], [ 34.07262, -1.05982 ], [ 33.903711197104528, -0.95 ], [ 33.893568969666944, 0.109813537861896 ], [ 34.18, 0.515 ], [ 34.6721, 1.17694 ], [ 35.03599, 1.90584 ], [ 34.59607, 3.053740000000118 ], [ 34.47913, 3.5556 ], [ 34.005, 4.249884947362048 ], [ 34.620196267853878, 4.847122742081988 ], [ 35.298007118232981, 5.506 ], [ 35.817447662353516, 5.338232082790797 ], [ 35.817447662353516, 4.77696566346189 ], [ 36.159078632855646, 4.447864127672769 ], [ 36.855093238008124, 4.447864127672769 ], [ 38.120915, 3.598605 ], [ 38.43697, 3.58851 ], [ 38.67114, 3.61607 ], [ 38.89251, 3.50074 ], [ 39.559384258765853, 3.42206 ], [ 39.85494, 3.83879 ], [ 40.76848, 4.25702 ], [ 41.1718, 3.91909 ], [ 41.855083092643973, 3.918911920483727 ], [ 40.98105, 2.78452 ], [ 40.993, -0.85829 ], [ 41.58513, -1.68325 ], [ 40.88477, -2.08255 ], [ 40.63785, -2.49979 ], [ 40.26304, -2.57309 ], [ 40.12119, -3.27768 ], [ 39.80006, -3.68116 ], [ 39.60489, -4.34653 ], [ 39.20222, -4.67677 ] ] ] } },
{ "type": "Feature", "properties": { "country": "Sudan", "iso3": "SDN", "continent": "Africa", "pop_est_ne": 37345935, "gdp_md_est": 176300.0, "case_role": "terrestrial_option", "source": "Natural Earth low resolution (via pyogrio fixture); public domain; generalized geometry." }, "geometry": { "type": "Polygon", "coordinates": [ [ [ 24.567369012152085, 8.229187933785468 ], [ 23.805813429466752, 8.666318874542526 ], [ 23.459012892355986, 8.954285793488893 ], [ 23.394779087017184, 9.265067857292223 ], [ 23.55724979014283, 9.681218166538684 ], [ 23.554304233502194, 10.089255275915308 ], [ 22.97754357269261, 10.71446259199854 ], [ 22.864165480244225, 11.142395127807546 ], [ 22.87622, 11.384610000000123 ], [ 22.50869, 11.67936 ], [ 22.49762, 12.26024 ], [ 22.28801, 12.64605 ], [ 21.93681, 12.588180000000136 ], [ 22.03759, 12.95546 ], [ 22.29658, 13.37232 ], [ 22.18329, 13.78648 ], [ 22.51202, 14.09318 ], [ 22.30351, 14.32682 ], [ 22.56795000000011, 14.944290000000137 ], [ 23.024590000000103, 15.68072 ], [ 23.886890000000108, 15.61084 ], [ 23.837660000000142, 19.580470000000105 ], [ 23.850000000000136, 20.0 ], [ 25.000000000000114, 20.00304 ], [ 25.0, 22.0 ], [ 29.02, 22.0 ], [ 32.9, 22.0 ], [ 36.86623, 22.0 ], [ 37.188720000000103, 21.01885 ], [ 36.96941, 20.837440000000129 ], [ 37.114700000000141, 19.80796 ], [ 37.481790000000103, 18.61409 ], [ 37.86276, 18.36786 ], [ 38.410089959473225, 17.998307399970315 ], [ 37.90400000000011, 17.42754 ], [ 37.16747, 17.263140000000135 ], [ 36.852530000000115, 16.95655 ], [ 36.75389, 16.29186 ], [ 36.32322, 14.82249 ], [ 36.42951, 14.42211 ], [ 36.27022, 13.563330000000121 ], [ 35.86363, 12.57828 ], [ 35.26049, 12.08286 ], [ 34.831630000000132, 11.318960000000118 ], [ 34.731150000000127, 10.910170000000107 ], [ 34.25745, 10.63009 ], [ 33.96162, 9.58358 ], [ 33.97498, 8.68456 ], [ 33.963392794971185, 9.464285229420625 ], [ 33.824963480907513, 9.484060845715362 ], [ 33.842130853028152, 9.981914637215993 ], [ 33.721959248183111, 10.325262079630193 ], [ 33.206938084561784, 10.720111638406593 ], [ 33.086766479716744, 11.441141267476496 ], [ 33.206938084561784, 12.179338268667095 ], [ 32.743419037302544, 12.248007757149992 ], [ 32.674749548819648, 12.02483191958072 ], [ 32.073891524594785, 11.973329803218519 ], [ 32.314234734284753, 11.681484477166521 ], [ 32.400071594888345, 11.080626452941488 ], [ 31.850715687025513, 10.531270545078826 ], [ 31.352861895524882, 9.810240916008695 ], [ 30.837840731903384, 9.70723668328452 ], [ 29.996639497988554, 10.290927335388687 ], [ 29.618957311332849, 10.084918869940225 ], [ 29.515953078608618, 9.793073543888056 ], [ 29.000931914987177, 9.604232450560289 ], [ 28.966597170745786, 9.398223985111656 ], [ 27.970889587744352, 9.398223985111656 ], [ 27.833550610778786, 9.604232450560289 ], [ 27.112520981708883, 9.638567194801624 ], [ 26.752006167173818, 9.466893473594496 ], [ 26.477328213242515, 9.552730334198088 ], [ 25.962307049621018, 10.136420986302426 ], [ 25.790633328413946, 10.411098940233728 ], [ 25.069603699343986, 10.273759963267992 ], [ 24.794925745412684, 9.810240916008695 ], [ 24.53741516360202, 8.91753756573172 ], [ 24.19406772118765, 8.728696472403897 ], [ 23.886979580860668, 8.619729712933065 ], [ 24.567369012152085, 8.229187933785468 ] ] ] } },
{ "type": "Feature", "properties": { "country": "Ghana", "iso3": "GHA", "continent": "Africa", "pop_est_ne": 27499924, "gdp_md_est": 120800.0, "case_role": "policy_comparator", "source": "Natural Earth low resolution (via pyogrio fixture); public domain; generalized geometry." }, "geometry": { "type": "Polygon", "coordinates": [ [ [ 0.023802524423701, 11.018681748900804 ], [ -0.049784715159944, 10.706917832883931 ], [ 0.367579990245389, 10.19121287682718 ], [ 0.365900506195885, 9.465003973829482 ], [ 0.461191847342121, 8.677222601756014 ], [ 0.712029249686879, 8.312464504423829 ], [ 0.490957472342245, 7.411744289576475 ], [ 0.570384148774849, 6.914358628767189 ], [ 0.836931186536333, 6.279978745952149 ], [ 1.060121697604927, 5.928837388528876 ], [ -0.507637905265938, 5.343472601742675 ], [ -1.063624640294194, 5.000547797053812 ], [ -1.964706590167594, 4.710462144383371 ], [ -2.856125047202397, 4.994475816259509 ], [ -2.81070146321784, 5.38905121502411 ], [ -3.244370083011262, 6.250471503113502 ], [ -2.983584967450327, 7.379704901555513 ], [ -2.562189500326241, 8.219627793811483 ], [ -2.827496303712707, 9.642460842319778 ], [ -2.963896246747112, 10.395334784380083 ], [ -2.940409308270461, 10.962690334512558 ], [ -1.203357713211432, 11.009819240762738 ], [ -0.761575893548183, 10.936929633015055 ], [ -0.438701544588582, 11.098340969278722 ], [ 0.023802524423701, 11.018681748900804 ] ] ] } },
{ "type": "Feature", "properties": { "country": "Eritrea", "iso3": "ERI", "continent": "Africa", "pop_est_ne": 5918919, "gdp_md_est": 9169.0, "case_role": "focal_country", "source": "Natural Earth low resolution (via pyogrio fixture); public domain; generalized geometry." }, "geometry": { "type": "Polygon", "coordinates": [ [ [ 36.42951, 14.42211 ], [ 36.32322, 14.82249 ], [ 36.75389, 16.29186 ], [ 36.852530000000115, 16.95655 ], [ 37.16747, 17.263140000000135 ], [ 37.90400000000011, 17.42754 ], [ 38.410089959473225, 17.998307399970315 ], [ 38.990622999840014, 16.840626125551694 ], [ 39.26611006038803, 15.922723496967251 ], [ 39.814293654140215, 15.435647284400318 ], [ 41.179274936697652, 14.491079616753211 ], [ 41.734951613132353, 13.921036892141558 ], [ 42.276830682144862, 13.343992010954423 ], [ 42.589576450375262, 13.000421250861905 ], [ 43.081226027200159, 12.699638576707116 ], [ 42.779642368344753, 12.455415757695675 ], [ 42.35156000000012, 12.542230000000131 ], [ 42.00975, 12.86582 ], [ 41.59856, 13.452090000000112 ], [ 41.1552, 13.77333 ], [ 40.8966, 14.118640000000141 ], [ 40.026250000000118, 14.51959 ], [ 39.34061, 14.53155 ], [ 39.0994, 14.74064 ], [ 38.51295, 14.50547 ], [ 37.906070000000113, 14.959430000000168 ], [ 37.59377, 14.2131 ], [ 36.42951, 14.42211 ] ] ] } },
{ "type": "Feature", "properties": { "country": "Yemen", "iso3": "YEM", "continent": "Asia", "pop_est_ne": 28036829, "gdp_md_est": 73450.0, "case_role": "red_sea_neighbor", "source": "Natural Earth low resolution (via pyogrio fixture); public domain; generalized geometry." }, "geometry": { "type": "Polygon", "coordinates": [ [ [ 52.000009800022241, 19.000003363516058 ], [ 52.782184279192052, 17.349742336491232 ], [ 53.108572625547509, 16.651051133688952 ], [ 52.385205926325881, 16.382411200419654 ], [ 52.19172936382509, 15.93843313238402 ], [ 52.1681649107, 15.597420355689948 ], [ 51.172515089732485, 15.175249742081492 ], [ 49.57457645040315, 14.708766587782748 ], [ 48.679230584514158, 14.00320241948566 ], [ 48.238947381387419, 13.948089504446372 ], [ 47.938914015500785, 14.007233181204427 ], [ 47.354453566279716, 13.592219753468383 ], [ 46.717076450391744, 13.399699204965019 ], [ 45.877592807810267, 13.347764390511685 ], [ 45.625050083199881, 13.290946153206763 ], [ 45.406458774605255, 13.026905422411433 ], [ 45.144355910020863, 12.953938300015309 ], [ 44.989533318874415, 12.69958690027471 ], [ 44.494576450382851, 12.721652736863348 ], [ 44.175112745954493, 12.585950425664876 ], [ 43.482958611837127, 12.636800035040084 ], [ 43.222871128112132, 13.220950425667425 ], [ 43.25144819516953, 13.767583726450852 ], [ 43.087943963398061, 14.062630316621309 ], [ 42.892245314308724, 14.802249253798749 ], [ 42.60487267433362, 15.213335272680595 ], [ 42.805015496600049, 15.261962795467255 ], [ 42.702437778500659, 15.718885809791999 ], [ 42.823670688657415, 15.911742255105267 ], [ 42.77933230975097, 16.347891343648683 ], [ 43.218375278502748, 16.66688996018641 ], [ 43.115797560403358, 17.088440456607373 ], [ 43.380794305196105, 17.579986680567671 ], [ 43.791518589051918, 17.319976711491108 ], [ 44.062613152855079, 17.410358791569593 ], [ 45.216651238797191, 17.433328965723334 ], [ 45.399999220568759, 17.333335069238558 ], [ 46.366658563020536, 17.233315334537636 ], [ 46.749994337761649, 17.283338120996177 ], [ 47.000004917189756, 16.949999294497445 ], [ 47.466694777217633, 17.116681626854884 ], [ 48.183343540241339, 18.166669216377315 ], [ 49.116671583864871, 18.616667588774945 ], [ 52.000009800022241, 19.000003363516058 ] ] ] } },
{ "type": "Feature", "properties": { "country": "Saudi Arabia", "iso3": "SAU", "continent": "Asia", "pop_est_ne": 28571770, "gdp_md_est": 1731000.0, "case_role": "red_sea_neighbor", "source": "Natural Earth low resolution (via pyogrio fixture); public domain; generalized geometry." }, "geometry": { "type": "Polygon", "coordinates": [ [ [ 34.956037225084259, 29.356554673778845 ], [ 36.068940870922063, 29.197494615184453 ], [ 36.50121422704359, 29.505253607698705 ], [ 36.74052778498725, 29.86528331147619 ], [ 37.503581984209035, 30.003776150018407 ], [ 37.668119744626381, 30.338665269485901 ], [ 37.998848911294374, 30.508499864213135 ], [ 37.002165561681011, 31.508412990844747 ], [ 39.004885695152552, 32.010216986614978 ], [ 39.195468377444968, 32.161008816042667 ], [ 40.399994337736246, 31.889991766887935 ], [ 41.889980910007836, 31.190008653278369 ], [ 44.709498732284743, 29.178891099559383 ], [ 46.568713413281756, 29.09902517345229 ], [ 47.459821811722833, 29.002519436147224 ], [ 47.708850538937384, 28.526062730416143 ], [ 48.416094191283946, 28.55200429942667 ], [ 48.807594842327177, 27.689627997339883 ], [ 49.299554477745829, 27.461218166609811 ], [ 49.470913527225662, 27.109999294538085 ], [ 50.152422316290881, 26.689663194275997 ], [ 50.212935418504685, 26.277026882425375 ], [ 50.113303257045942, 25.943972276304251 ], [ 50.239858839728754, 25.608049628190926 ], [ 50.527386509000735, 25.327808335872103 ], [ 50.660556675016892, 24.999895534764022 ], [ 50.810108270069577, 24.754742539971378 ], [ 51.112415398977021, 24.556330878186724 ], [ 51.38960778179063, 24.627385972588058 ], [ 51.579518670463273, 24.245497137951105 ], [ 51.617707553926977, 24.014219265228832 ], [ 52.000733270074335, 23.00115448657894 ], [ 55.006803012924905, 22.496947536707136 ], [ 55.208341098863194, 22.708329982997046 ], [ 55.666659376859826, 22.000001125572339 ], [ 54.999981723862362, 19.999994004796108 ], [ 52.000009800022241, 19.000003363516058 ], [ 49.116671583864871, 18.616667588774945 ], [ 48.183343540241339, 18.166669216377315 ], [ 47.466694777217633, 17.116681626854884 ], [ 47.000004917189756, 16.949999294497445 ], [ 46.749994337761649, 17.283338120996177 ], [ 46.366658563020536, 17.233315334537636 ], [ 45.399999220568759, 17.333335069238558 ], [ 45.216651238797191, 17.433328965723334 ], [ 44.062613152855079, 17.410358791569593 ], [ 43.791518589051918, 17.319976711491108 ], [ 43.380794305196105, 17.579986680567671 ], [ 43.115797560403358, 17.088440456607373 ], [ 43.218375278502748, 16.66688996018641 ], [ 42.77933230975097, 16.347891343648683 ], [ 42.649572788266084, 16.774635321514964 ], [ 42.347989129410713, 17.075805568912003 ], [ 42.270887892431226, 17.474721787989125 ], [ 41.754381951673963, 17.833046169500975 ], [ 41.22139122901558, 18.67159963630121 ], [ 40.93934126156654, 19.486485297111756 ], [ 40.247652215339826, 20.174634507726491 ], [ 39.801684604660949, 20.338862209550058 ], [ 39.139399448408284, 21.291904812092934 ], [ 39.023695916506796, 21.986875311770195 ], [ 39.066328973147591, 22.57965566659027 ], [ 38.492772251140082, 23.688451036060854 ], [ 38.023860304523623, 24.078685614512935 ], [ 37.483634881344386, 24.285494696545015 ], [ 37.154817742671185, 24.858482977797308 ], [ 37.209491408036001, 25.084541530858107 ], [ 36.93162723160259, 25.602959499610179 ], [ 36.639603712721225, 25.826227525327223 ], [ 36.249136590323815, 26.570135606384881 ], [ 35.640181512196392, 27.376520494083422 ], [ 35.130186801907882, 28.063351955674719 ], [ 34.632336053207979, 28.058546047471566 ], [ 34.787778761541944, 28.607427273059699 ], [ 34.832220493312946, 28.957483425404845 ], [ 34.956037225084259, 29.356554673778845 ] ] ] } },
{ "type": "Feature", "properties": { "country": "Egypt", "iso3": "EGY", "continent": "Africa", "pop_est_ne": 97041072, "gdp_md_est": 1105000.0, "case_role": "red_sea_gateway", "source": "Natural Earth low resolution (via pyogrio fixture); public domain; generalized geometry." }, "geometry": { "type": "Polygon", "coordinates": [ [ [ 36.86623, 22.0 ], [ 32.9, 22.0 ], [ 29.02, 22.0 ], [ 25.0, 22.0 ], [ 25.0, 25.682499996360999 ], [ 25.0, 29.238654529533459 ], [ 24.70007, 30.04419 ], [ 24.95762, 30.6616 ], [ 24.80287, 31.08929 ], [ 25.16482, 31.56915 ], [ 26.49533, 31.58568 ], [ 27.45762, 31.32126 ], [ 28.45048, 31.02577 ], [ 28.91353, 30.87005 ], [ 29.68342, 31.18686 ], [ 30.09503, 31.4734 ], [ 30.97693, 31.55586 ], [ 31.68796, 31.4296 ], [ 31.96041, 30.9336 ], [ 32.19247, 31.26034 ], [ 32.99392, 31.02407 ], [ 33.7734, 30.96746 ], [ 34.265434744646207, 31.219357309520319 ], [ 34.26544, 31.21936 ], [ 34.823243288783814, 29.761080761718219 ], [ 34.9226, 29.50133 ], [ 34.64174, 29.09942 ], [ 34.42655, 28.34399 ], [ 34.15451, 27.8233 ], [ 33.92136, 27.6487 ], [ 33.58811, 27.97136 ], [ 33.13676, 28.41765 ], [ 32.42323, 29.85108 ], [ 32.32046, 29.76043 ], [ 32.73482, 28.70523 ], [ 33.34876, 27.69989 ], [ 34.10455, 26.14227 ], [ 34.47387, 25.59856 ], [ 34.79507, 25.03375 ], [ 35.69241, 23.92671 ], [ 35.49372, 23.75237 ], [ 35.52598, 23.10244 ], [ 36.69069, 22.20485 ], [ 36.86623, 22.0 ] ] ] } },
{ "type": "Feature", "properties": { "country": "Ethiopia", "iso3": "ETH", "continent": "Africa", "pop_est_ne": 105350020, "gdp_md_est": 174700.0, "case_role": "regional_neighbor", "source": "Natural Earth low resolution (via pyogrio fixture); public domain; generalized geometry." }, "geometry": { "type": "Polygon", "coordinates": [ [ [ 47.78942, 8.003 ], [ 44.9636, 5.00162 ], [ 43.66087, 4.95755 ], [ 42.76967, 4.25259 ], [ 42.12861, 4.23413 ], [ 41.855083092643973, 3.918911920483727 ], [ 41.1718, 3.91909 ], [ 40.76848, 4.25702 ], [ 39.85494, 3.83879 ], [ 39.559384258765853, 3.42206 ], [ 38.89251, 3.50074 ], [ 38.67114, 3.61607 ], [ 38.43697, 3.58851 ], [ 38.120915, 3.598605 ], [ 36.855093238008124, 4.447864127672769 ], [ 36.159078632855646, 4.447864127672769 ], [ 35.817447662353516, 4.77696566346189 ], [ 35.817447662353516, 5.338232082790797 ], [ 35.298007118232981, 5.506 ], [ 34.70702, 6.594220000000121 ], [ 34.25032, 6.82607 ], [ 34.0751, 7.22595 ], [ 33.568290000000104, 7.71334 ], [ 32.95418, 7.784970000000101 ], [ 33.294800000000123, 8.35458 ], [ 33.825500000000147, 8.37916 ], [ 33.97498, 8.68456 ], [ 33.96162, 9.58358 ], [ 34.25745, 10.63009 ], [ 34.731150000000127, 10.910170000000107 ], [ 34.831630000000132, 11.318960000000118 ], [ 35.26049, 12.08286 ], [ 35.86363, 12.57828 ], [ 36.27022, 13.563330000000121 ], [ 36.42951, 14.42211 ], [ 37.59377, 14.2131 ], [ 37.906070000000113, 14.959430000000168 ], [ 38.51295, 14.50547 ], [ 39.0994, 14.74064 ], [ 39.34061, 14.53155 ], [ 40.026250000000118, 14.51959 ], [ 40.8966, 14.118640000000141 ], [ 41.1552, 13.77333 ], [ 41.59856, 13.452090000000112 ], [ 42.00975, 12.86582 ], [ 42.35156000000012, 12.542230000000131 ], [ 42.000000000000114, 12.100000000000136 ], [ 41.661760000000129, 11.6312 ], [ 41.739590000000192, 11.355110000000138 ], [ 41.755570000000205, 11.050910000000101 ], [ 42.314140000000123, 11.0342 ], [ 42.554930000000127, 11.105110000000195 ], [ 42.776851841000962, 10.92687856693442 ], [ 42.55876, 10.57258000000013 ], [ 42.92812, 10.021940000000143 ], [ 43.296990000000108, 9.540480000000173 ], [ 43.67875, 9.18358000000012 ], [ 46.94834, 7.99688 ], [ 47.78942, 8.003 ] ] ] } },
{ "type": "Feature", "properties": { "country": "Djibouti", "iso3": "DJI", "continent": "Africa", "pop_est_ne": 865267, "gdp_md_est": 3345.0, "case_role": "regional_hub", "source": "Natural Earth low resolution (via pyogrio fixture); public domain; generalized geometry." }, "geometry": { "type": "Polygon", "coordinates": [ [ [ 42.35156000000012, 12.542230000000131 ], [ 42.779642368344753, 12.455415757695675 ], [ 43.081226027200159, 12.699638576707116 ], [ 43.317852410664671, 12.390148423711025 ], [ 43.286381463398925, 11.974928290245884 ], [ 42.715873650896526, 11.735640570518342 ], [ 43.145304803242141, 11.462039699748857 ], [ 42.776851841000962, 10.92687856693442 ], [ 42.554930000000127, 11.105110000000195 ], [ 42.314140000000123, 11.0342 ], [ 41.755570000000205, 11.050910000000101 ], [ 41.739590000000192, 11.355110000000138 ], [ 41.661760000000129, 11.6312 ], [ 42.000000000000114, 12.100000000000136 ], [ 42.35156000000012, 12.542230000000131 ] ] ] } },
{ "type": "Feature", "properties": { "country": "Rwanda", "iso3": "RWA", "continent": "Africa", "pop_est_ne": 11901484, "gdp_md_est": 21970.0, "case_role": "policy_comparator", "source": "Natural Earth low resolution (via pyogrio fixture); public domain; generalized geometry." }, "geometry": { "type": "Polygon", "coordinates": [ [ [ 30.419104852019245, -1.134659112150416 ], [ 30.816134881317712, -1.698914076345389 ], [ 30.758308953583111, -2.287250257988369 ], [ 30.46967, -2.41383 ], [ 30.469673645761223, -2.41385475710134 ], [ 29.938359002407939, -2.348486830254238 ], [ 29.632176141078588, -2.917857761246097 ], [ 29.024926385216787, -2.839257907730158 ], [ 29.117478875451553, -2.292211195488385 ], [ 29.254834832483343, -2.215109958508911 ], [ 29.291886834436614, -1.620055840667987 ], [ 29.579466180140884, -1.341313164885626 ], [ 29.821518588996014, -1.443322442229785 ], [ 30.419104852019245, -1.134659112150416 ] ] ] } }
]
}
