{
"type": "FeatureCollection",
"name": "eritrea_cities",
"crs": { "type": "name", "properties": { "name": "urn:ogc:def:crs:OGC:1.3:CRS84" } },
"features": [
{ "type": "Feature", "properties": { "name": "Asmara", "role": "capital_admin", "demand_index": 10, "note": "Primary administrative and demand node.", "source": "Pedagogical point layer assembled from approximate public coordinates; not for navigation." }, "geometry": { "type": "Point", "coordinates": [ 38.9251, 15.3229 ] } },
{ "type": "Feature", "properties": { "name": "Massawa", "role": "port_landing_candidate", "demand_index": 8, "note": "Northern Red Sea port and main landing-station candidate.", "source": "Pedagogical point layer assembled from approximate public coordinates; not for navigation." }, "geometry": { "type": "Point", "coordinates": [ 39.4746, 15.6081 ] } },
{ "type": "Feature", "properties": { "name": "Assab", "role": "port_landing_candidate", "demand_index": 5, "note": "Southern Red Sea port; alternative landing and redundancy site.", "source": "Pedagogical point layer assembled from approximate public coordinates; not for navigation." }, "geometry": { "type": "Point", "coordinates": [ 42.7394, 13.0092 ] } },
{ "type": "Feature", "properties": { "name": "Keren", "role": "regional_city", "demand_index": 4, "note": "Northern highland demand node.", "source": "Pedagogical point layer assembled from approximate public coordinates; not for navigation." }, "geometry": { "type": "Point", "coordinates": [ 38.4511, 15.7778 ] } },
{ "type": "Feature", "properties": { "name": "Mendefera", "role": "regional_city", "demand_index": 4, "note": "Southern highland demand node.", "source": "Pedagogical point layer assembled from approximate public coordinates; not for navigation." }, "geometry": { "type": "Point", "coordinates": [ 38.8153, 14.8872 ] } },
{ "type": "Feature", "properties": { "name": "Dekemhare", "role": "regional_city", "demand_index": 3, "note": "Intermediate fiber routing node.", "source": "Pedagogical point layer assembled from approximate public coordinates; not for navigation." }, "geometry": { "type": "Point", "coordinates": [ 39.0475, 15.07 ] } },
{ "type": "Feature", "properties": { "name": "Barentu", "role": "regional_city", "demand_index": 3, "note": "Western regional demand node near Sudan corridor.", "source": "Pedagogical point layer assembled from approximate public coordinates; not for navigation." }, "geometry": { "type": "Point", "coordinates": [ 37.5928, 15.1139 ] } },
{ "type": "Feature", "properties": { "name": "Teseney", "role": "border_node", "demand_index": 2, "note": "Western border node for Sudan terrestrial route.", "source": "Pedagogical point layer assembled from approximate public coordinates; not for navigation." }, "geometry": { "type": "Point", "coordinates": [ 36.6575, 15.1109 ] } },
{ "type": "Feature", "properties": { "name": "Agordat", "role": "regional_city", "demand_index": 2, "note": "Western route support node.", "source": "Pedagogical point layer assembled from approximate public coordinates; not for navigation." }, "geometry": { "type": "Point", "coordinates": [ 37.8867, 15.5486 ] } },
{ "type": "Feature", "properties": { "name": "Nakfa", "role": "regional_city", "demand_index": 1, "note": "Northern highland support node.", "source": "Pedagogical point layer assembled from approximate public coordinates; not for navigation." }, "geometry": { "type": "Point", "coordinates": [ 38.4646, 16.6657 ] } },
{ "type": "Feature", "properties": { "name": "Afabet", "role": "regional_city", "demand_index": 1, "note": "Northern route support node.", "source": "Pedagogical point layer assembled from approximate public coordinates; not for navigation." }, "geometry": { "type": "Point", "coordinates": [ 38.6904, 16.1924 ] } }
]
}
