{
"type": "FeatureCollection",
"name": "regional_nodes",
"crs": { "type": "name", "properties": { "name": "urn:ogc:def:crs:OGC:1.3:CRS84" } },
"features": [
{ "type": "Feature", "properties": { "name": "Kassala", "country": "Sudan", "role": "terrestrial_fiber_node", "strategic_weight": 4, "source": "Pedagogical point layer assembled from approximate public coordinates; not for navigation." }, "geometry": { "type": "Point", "coordinates": [ 36.4, 15.451 ] } },
{ "type": "Feature", "properties": { "name": "Gedaref", "country": "Sudan", "role": "terrestrial_fiber_node", "strategic_weight": 3, "source": "Pedagogical point layer assembled from approximate public coordinates; not for navigation." }, "geometry": { "type": "Point", "coordinates": [ 35.3833, 14.0333 ] } },
{ "type": "Feature", "properties": { "name": "Wad Madani", "country": "Sudan", "role": "terrestrial_fiber_node", "strategic_weight": 3, "source": "Pedagogical point layer assembled from approximate public coordinates; not for navigation." }, "geometry": { "type": "Point", "coordinates": [ 33.5199, 14.4012 ] } },
{ "type": "Feature", "properties": { "name": "Khartoum", "country": "Sudan", "role": "national_backhaul_node", "strategic_weight": 8, "source": "Pedagogical point layer assembled from approximate public coordinates; not for navigation." }, "geometry": { "type": "Point", "coordinates": [ 32.5599, 15.5007 ] } },
{ "type": "Feature", "properties": { "name": "Shendi", "country": "Sudan", "role": "terrestrial_fiber_node", "strategic_weight": 2, "source": "Pedagogical point layer assembled from approximate public coordinates; not for navigation." }, "geometry": { "type": "Point", "coordinates": [ 33.4341, 16.6915 ] } },
{ "type": "Feature", "properties": { "name": "Port Sudan", "country": "Sudan", "role": "submarine_landing_context", "strategic_weight": 5, "source": "Pedagogical point layer assembled from approximate public coordinates; not for navigation." }, "geometry": { "type": "Point", "coordinates": [ 37.2164, 19.6158 ] } },
{ "type": "Feature", "properties": { "name": "Djibouti City", "country": "Djibouti", "role": "regional_landing_hub", "strategic_weight": 7, "source": "Pedagogical point layer assembled from approximate public coordinates; not for navigation." }, "geometry": { "type": "Point", "coordinates": [ 43.145, 11.5889 ] } },
{ "type": "Feature", "properties": { "name": "Berbera", "country": "Somaliland", "role": "regional_landing_hub", "strategic_weight": 4, "source": "Pedagogical point layer assembled from approximate public coordinates; not for navigation." }, "geometry": { "type": "Point", "coordinates": [ 45.0143, 10.4396 ] } },
{ "type": "Feature", "properties": { "name": "Mogadishu", "country": "Somalia", "role": "regional_landing_hub", "strategic_weight": 6, "source": "Pedagogical point layer assembled from approximate public coordinates; not for navigation." }, "geometry": { "type": "Point", "coordinates": [ 45.3182, 2.0469 ] } },
{ "type": "Feature", "properties": { "name": "Jeddah", "country": "Saudi Arabia", "role": "red_sea_landing_context", "strategic_weight": 8, "source": "Pedagogical point layer assembled from approximate public coordinates; not for navigation." }, "geometry": { "type": "Point", "coordinates": [ 39.1925, 21.4858 ] } },
{ "type": "Feature", "properties": { "name": "Aden", "country": "Yemen", "role": "red_sea_landing_context", "strategic_weight": 5, "source": "Pedagogical point layer assembled from approximate public coordinates; not for navigation." }, "geometry": { "type": "Point", "coordinates": [ 45.0187, 12.7855 ] } },
{ "type": "Feature", "properties": { "name": "Suez", "country": "Egypt", "role": "red_sea_gateway", "strategic_weight": 8, "source": "Pedagogical point layer assembled from approximate public coordinates; not for navigation." }, "geometry": { "type": "Point", "coordinates": [ 32.5498, 29.9668 ] } },
{ "type": "Feature", "properties": { "name": "Port Said", "country": "Egypt", "role": "mediterranean_gateway", "strategic_weight": 7, "source": "Pedagogical point layer assembled from approximate public coordinates; not for navigation." }, "geometry": { "type": "Point", "coordinates": [ 32.3019, 31.2653 ] } }
]
}
