{
"type": "FeatureCollection",
"name": "risk_zones_synthetic",
"crs": { "type": "name", "properties": { "name": "urn:ogc:def:crs:OGC:1.3:CRS84" } },
"features": [
{ "type": "Feature", "properties": { "name": "Khartoum instability zone", "country": "Sudan", "risk_type": "conflict_governance", "risk_score": 5, "radius_km": 130, "source": "Synthetic risk layer for classroom mapping. Replace with ACLED or other licensed event data for empirical analysis." }, "geometry": { "type": "Polygon", "coordinates": [ [ [ 33.727709869355365, 15.5007 ], [ 33.72208654563952, 15.39036866120126 ], [ 33.705270730173368, 15.28104220133695 ], [ 33.677424368452314, 15.173776345674199 ], [ 33.6388156361621, 15.069608481215564 ], [ 33.589816356500371, 14.969547485049283 ], [ 33.530898419315989, 14.874563780330103 ], [ 33.462629236551869, 14.78557972526643 ], [ 33.385666277757757, 14.703460438299215 ], [ 33.300750738299072, 14.629005159024274 ], [ 33.20870040124035, 14.562939239387072 ], [ 33.11040176164731, 14.505906853350368 ], [ 33.006801489154732, 14.458464505709319 ], [ 32.898897311020399, 14.421075412131996 ], [ 32.787728403466147, 14.394104812974952 ], [ 32.67436538384284, 14.377816273108319 ], [ 32.5599, 14.372369009030807 ], [ 32.445434616157137, 14.377816273108319 ], [ 32.332071596533837, 14.394104812974952 ], [ 32.220902688979592, 14.421075412131996 ], [ 32.112998510845252, 14.458464505709319 ], [ 32.009398238352667, 14.505906853350368 ], [ 31.911099598759634, 14.562939239387072 ], [ 31.819049261700915, 14.62900515902427 ], [ 31.73413372224223, 14.703460438299215 ], [ 31.657170763448114, 14.78557972526643 ], [ 31.588901580683988, 14.874563780330103 ], [ 31.529983643499612, 14.969547485049283 ], [ 31.48098436383788, 15.06960848121556 ], [ 31.442375631547673, 15.173776345674199 ], [ 31.41452926982662, 15.281042201336943 ], [ 31.397713454360471, 15.39036866120126 ], [ 31.392090130644618, 15.5007 ], [ 31.397713454360471, 15.610972447376046 ], [ 31.41452926982662, 15.720124497187166 ], [ 31.442375631547673, 15.827107129638438 ], [ 31.48098436383788, 15.930893846313712 ], [ 31.529983643499612, 16.030490422701323 ], [ 31.588901580683988, 16.124944288318883 ], [ 31.657170763448114, 16.213353450853887 ], [ 31.73413372224223, 16.294874887653432 ], [ 31.819049261700915, 16.36873233521796 ], [ 31.911099598759634, 16.434223414888294 ], [ 32.009398238352667, 16.490726040487662 ], [ 32.112998510845252, 16.537704061140911 ], [ 32.220902688979592, 16.574712099725733 ], [ 32.332071596533837, 16.601399554335586 ], [ 32.445434616157137, 16.61751373671083 ], [ 32.5599, 16.622902127822904 ], [ 32.67436538384284, 16.61751373671083 ], [ 32.787728403466147, 16.601399554335586 ], [ 32.898897311020399, 16.574712099725733 ], [ 33.006801489154732, 16.537704061140911 ], [ 33.11040176164731, 16.490726040487662 ], [ 33.20870040124035, 16.434223414888294 ], [ 33.300750738299072, 16.36873233521796 ], [ 33.385666277757757, 16.294874887653432 ], [ 33.462629236551869, 16.213353450853887 ], [ 33.530898419315989, 16.124944288318883 ], [ 33.589816356500371, 16.030490422701323 ], [ 33.6388156361621, 15.930893846313715 ], [ 33.677424368452314, 15.827107129638438 ], [ 33.705270730173368, 15.720124497187173 ], [ 33.72208654563952, 15.610972447376046 ], [ 33.727709869355365, 15.5007 ] ] ] } },
{ "type": "Feature", "properties": { "name": "Gezira corridor instability zone", "country": "Sudan", "risk_type": "conflict_governance", "risk_score": 4, "radius_km": 110, "source": "Synthetic risk layer for classroom mapping. Replace with ACLED or other licensed event data for empirical analysis." }, "geometry": { "type": "Polygon", "coordinates": [ [ [ 34.508046812531468, 14.4012 ], [ 34.503288615541138, 14.307368386304633 ], [ 34.489059848608242, 14.214401779944929 ], [ 34.465497542536575, 14.123197393764594 ], [ 34.432828615214092, 14.034636481158795 ], [ 34.391367686269554, 13.949575729073436 ], [ 34.341514047113542, 13.868838855824855 ], [ 34.28374781554389, 13.793208501012177 ], [ 34.218625311948877, 13.723418492697874 ], [ 34.146773701637677, 13.6601465738195 ], [ 34.068884954895687, 13.604007665506076 ], [ 33.985709182932347, 13.555547739667933 ], [ 33.898047413900166, 13.515238366987491 ], [ 33.806743878555729, 13.483471999354256 ], [ 33.712677879855974, 13.460558037963203 ], [ 33.616755324790105, 13.446719729841957 ], [ 33.5199, 13.442091926602412 ], [ 33.423044675209894, 13.446719729841957 ], [ 33.327122120144026, 13.460558037963203 ], [ 33.233056121444271, 13.483471999354256 ], [ 33.141752586099834, 13.515238366987491 ], [ 33.054090817067646, 13.555547739667933 ], [ 32.970915045104306, 13.604007665506073 ], [ 32.893026298362315, 13.6601465738195 ], [ 32.821174688051116, 13.723418492697871 ], [ 32.756052184456102, 13.793208501012177 ], [ 32.698285952886458, 13.868838855824855 ], [ 32.648432313730446, 13.949575729073436 ], [ 32.606971384785901, 14.034636481158795 ], [ 32.574302457463418, 14.123197393764594 ], [ 32.550740151391757, 14.214401779944929 ], [ 32.536511384458862, 14.307368386304633 ], [ 32.531753187468524, 14.4012 ], [ 32.536511384458862, 14.4949921723227 ], [ 32.550740151391757, 14.587841970784289 ], [ 32.574302457463418, 14.678856672855648 ], [ 32.606971384785901, 14.767162316769404 ], [ 32.648432313730446, 14.851912027976486 ], [ 32.698285952886458, 14.932294043851128 ], [ 32.756052184456102, 15.00753936393764 ], [ 32.821174688051116, 15.076928958294312 ], [ 32.893026298362315, 15.139800472177166 ], [ 32.970915045104306, 15.195554371286347 ], [ 33.054090817067646, 15.243659477946805 ], [ 33.141752586099834, 15.283657854804522 ], [ 33.233056121444271, 15.315168998801267 ], [ 33.327122120144026, 15.337893314279599 ], [ 33.423044675209894, 15.351614840024656 ], [ 33.5199, 15.356203210853632 ], [ 33.616755324790105, 15.351614840024656 ], [ 33.712677879855974, 15.337893314279599 ], [ 33.806743878555729, 15.315168998801267 ], [ 33.898047413900166, 15.283657854804522 ], [ 33.985709182932347, 15.243659477946805 ], [ 34.068884954895687, 15.195554371286347 ], [ 34.146773701637677, 15.139800472177166 ], [ 34.218625311948877, 15.076928958294316 ], [ 34.28374781554389, 15.00753936393764 ], [ 34.341514047113542, 14.932294043851128 ], [ 34.391367686269554, 14.851912027976486 ], [ 34.432828615214092, 14.767162316769404 ], [ 34.465497542536575, 14.678856672855648 ], [ 34.489059848608242, 14.587841970784289 ], [ 34.503288615541138, 14.4949921723227 ], [ 34.508046812531468, 14.4012 ] ] ] } },
{ "type": "Feature", "properties": { "name": "Gedaref-Kassala corridor risk", "country": "Sudan", "risk_type": "security_logistics", "risk_score": 3, "radius_km": 90, "source": "Synthetic risk layer for classroom mapping. Replace with ACLED or other licensed event data for empirical analysis." }, "geometry": { "type": "Polygon", "coordinates": [ [ [ 36.708483755707569, 14.7 ], [ 36.704590685442746, 14.623335180013019 ], [ 36.692948967043101, 14.547382294808399 ], [ 36.673670716620833, 14.472874074460378 ], [ 36.646941594266075, 14.400530031378084 ], [ 36.61301901603872, 14.331049451227448 ], [ 36.572229674911078, 14.265104556356086 ], [ 36.524966394535909, 14.203333911764178 ], [ 36.47168434613998, 14.146336141882209 ], [ 36.41289666497628, 14.09466402378149 ], [ 36.349169508551014, 14.048819018980131 ], [ 36.281116604217374, 14.009246301756866 ], [ 36.20939333864559, 13.976330336901571 ], [ 36.134690446091042, 13.950391054180448 ], [ 36.057727356245799, 13.931680660550967 ], [ 35.979245265737362, 13.920381124408589 ], [ 35.9, 13.916602358972233 ], [ 35.820754734262636, 13.920381124408589 ], [ 35.742272643754198, 13.931680660550967 ], [ 35.665309553908948, 13.950391054180448 ], [ 35.590606661354407, 13.976330336901571 ], [ 35.518883395782623, 14.009246301756866 ], [ 35.450830491448983, 14.048819018980131 ], [ 35.387103335023717, 14.09466402378149 ], [ 35.32831565386001, 14.146336141882209 ], [ 35.275033605464081, 14.203333911764178 ], [ 35.227770325088919, 14.265104556356086 ], [ 35.18698098396127, 14.331049451227448 ], [ 35.153058405733915, 14.400530031378084 ], [ 35.126329283379157, 14.472874074460378 ], [ 35.107051032956889, 14.547382294808399 ], [ 35.095409314557244, 14.623335180013015 ], [ 35.091516244292428, 14.7 ], [ 35.095409314557244, 14.776637917646948 ], [ 35.107051032956889, 14.852511129905466 ], [ 35.126329283379157, 14.926889969149007 ], [ 35.153058405733915, 14.999059896001066 ], [ 35.18698098396127, 15.068328317151776 ], [ 35.227770325088919, 15.13403116457185 ], [ 35.275033605464081, 15.195539175998169 ], [ 35.32831565386001, 15.25226382050645 ], [ 35.387103335023717, 15.303662817312363 ], [ 35.450830491448983, 15.349245200563796 ], [ 35.518883395782623, 15.388575887719847 ], [ 35.590606661354407, 15.421279714081136 ], [ 35.665309553908948, 15.447044901077938 ], [ 35.742272643754198, 15.465625930987017 ], [ 35.820754734262636, 15.476845805798956 ], [ 35.9, 15.480597672974165 ], [ 35.979245265737362, 15.476845805798956 ], [ 36.057727356245799, 15.465625930987017 ], [ 36.134690446091042, 15.447044901077938 ], [ 36.20939333864559, 15.421279714081136 ], [ 36.281116604217374, 15.388575887719847 ], [ 36.349169508551014, 15.349245200563796 ], [ 36.41289666497628, 15.303662817312363 ], [ 36.47168434613998, 15.252263820506457 ], [ 36.524966394535909, 15.195539175998169 ], [ 36.572229674911078, 15.13403116457185 ], [ 36.61301901603872, 15.068328317151776 ], [ 36.646941594266075, 14.999059896001066 ], [ 36.673670716620833, 14.926889969149007 ], [ 36.692948967043101, 14.852511129905466 ], [ 36.704590685442746, 14.776637917646948 ], [ 36.708483755707569, 14.7 ] ] ] } },
{ "type": "Feature", "properties": { "name": "Border maintenance exposure", "country": "Eritrea/Sudan", "risk_type": "maintenance_access", "risk_score": 3, "radius_km": 75, "source": "Synthetic risk layer for classroom mapping. Replace with ACLED or other licensed event data for empirical analysis." }, "geometry": { "type": "Polygon", "coordinates": [ [ [ 37.323736463089638, 15.11 ], [ 37.320492237868955, 15.046235825632719 ], [ 37.310790805869246, 14.983066928127569 ], [ 37.294725597184026, 14.921102541220822 ], [ 37.272451328555057, 14.860940796422101 ], [ 37.244182513365601, 14.803162907022431 ], [ 37.210191395759232, 14.748327498820412 ], [ 37.170805328779927, 14.696965145086427 ], [ 37.126403621783318, 14.649573161747549 ], [ 37.077413887480233, 14.606610716563864 ], [ 37.024307923792506, 14.568494303196966 ], [ 36.967597170181143, 14.535593627573864 ], [ 36.907827782204656, 14.508227949863658 ], [ 36.845575371742541, 14.486662920760027 ], [ 36.781439463538163, 14.471107945657302 ], [ 36.716037721447798, 14.461714104785743 ], [ 36.65, 14.458572651501813 ], [ 36.5839622785522, 14.461714104785743 ], [ 36.518560536461827, 14.471107945657302 ], [ 36.454424628257456, 14.486662920760027 ], [ 36.392172217795334, 14.508227949863658 ], [ 36.332402829818854, 14.535593627573864 ], [ 36.275692076207477, 14.568494303196966 ], [ 36.222586112519764, 14.606610716563864 ], [ 36.173596378216665, 14.649573161747549 ], [ 36.129194671220063, 14.696965145086427 ], [ 36.089808604240766, 14.748327498820412 ], [ 36.055817486634389, 14.803162907022431 ], [ 36.027548671444933, 14.860940796422101 ], [ 36.005274402815964, 14.921102541220822 ], [ 35.989209194130744, 14.983066928127561 ], [ 35.979507762131036, 15.046235825632719 ], [ 35.976263536910352, 15.11 ], [ 35.979507762131036, 15.173745019599819 ], [ 35.989209194130744, 15.23685718902383 ], [ 36.005274402815964, 15.298729454889434 ], [ 36.027548671444933, 15.358767226333899 ], [ 36.055817486634389, 15.416394054867025 ], [ 36.089808604240766, 15.471057120448936 ], [ 36.129194671220063, 15.522232473326383 ], [ 36.173596378216665, 15.569429984235644 ], [ 36.222586112519757, 15.612197958997257 ], [ 36.275692076207477, 15.650127377224628 ], [ 36.332402829818854, 15.682855718783729 ], [ 36.392172217795334, 15.710070345720011 ], [ 36.454424628257456, 15.731511411562014 ], [ 36.518560536461827, 15.746974274179717 ], [ 36.5839622785522, 15.756311392687142 ], [ 36.65, 15.759433693211166 ], [ 36.716037721447798, 15.756311392687142 ], [ 36.781439463538163, 15.746974274179717 ], [ 36.845575371742541, 15.731511411562014 ], [ 36.907827782204656, 15.710070345720011 ], [ 36.967597170181143, 15.682855718783729 ], [ 37.024307923792506, 15.650127377224628 ], [ 37.077413887480233, 15.612197958997257 ], [ 37.126403621783318, 15.569429984235644 ], [ 37.170805328779927, 15.522232473326383 ], [ 37.210191395759232, 15.471057120448936 ], [ 37.244182513365601, 15.416394054867029 ], [ 37.272451328555057, 15.358767226333899 ], [ 37.294725597184026, 15.298729454889434 ], [ 37.310790805869246, 15.23685718902383 ], [ 37.320492237868955, 15.173745019599819 ], [ 37.323736463089638, 15.11 ] ] ] } },
{ "type": "Feature", "properties": { "name": "Red Sea cable chokepoint exposure", "country": "Red Sea", "risk_type": "maritime_chokepoint", "risk_score": 4, "radius_km": 160, "source": "Synthetic risk layer for classroom mapping. Replace with ACLED or other licensed event data for empirical analysis." }, "geometry": { "type": "Polygon", "coordinates": [ [ [ 44.437304454591235, 12.7 ], [ 44.430383440787104, 12.562529211894951 ], [ 44.409687052521072, 12.426309859241927 ], [ 44.375414607325936, 12.292657653824227 ], [ 44.327896167584136, 12.162865440829052 ], [ 44.267589361846618, 12.038190501966334 ], [ 44.195074977619683, 11.919842147160026 ], [ 44.111051368063848, 11.808969727525275 ], [ 44.01632772647109, 11.706651199019738 ], [ 43.911816293291167, 11.613882360969365 ], [ 43.798523570757368, 11.531566886744312 ], [ 43.677540629719779, 11.460507255362785 ], [ 43.550032602036602, 11.401396682919245 ], [ 43.417227459717409, 11.35481214167131 ], [ 43.280404188881413, 11.321208542580232 ], [ 43.140880472421969, 11.300914144278824 ], [ 43.0, 11.294127238017847 ], [ 42.859119527578024, 11.300914144278824 ], [ 42.719595811118573, 11.321208542580232 ], [ 42.582772540282583, 11.35481214167131 ], [ 42.449967397963384, 11.401396682919245 ], [ 42.322459370280221, 11.460507255362785 ], [ 42.201476429242625, 11.531566886744312 ], [ 42.088183706708826, 11.613882360969365 ], [ 41.983672273528903, 11.706651199019738 ], [ 41.888948631936145, 11.808969727525275 ], [ 41.804925022380303, 11.919842147160026 ], [ 41.732410638153375, 12.038190501966334 ], [ 41.672103832415857, 12.162865440829052 ], [ 41.624585392674064, 12.292657653824227 ], [ 41.590312947478914, 12.426309859241927 ], [ 41.569616559212889, 12.562529211894951 ], [ 41.562695545408758, 12.7 ], [ 41.569616559212889, 12.837396496530994 ], [ 41.590312947478914, 12.973395831513741 ], [ 41.624585392674064, 13.106690754210618 ], [ 41.672103832415857, 13.236002158423634 ], [ 41.732410638153375, 13.360091250051566 ], [ 41.804925022380303, 13.477771243346989 ], [ 41.888948631936145, 13.58791848076477 ], [ 41.983672273528903, 13.689482880579757 ], [ 42.088183706708826, 13.781497626273975 ], [ 42.201476429242625, 13.86308802175366 ], [ 42.322459370280221, 13.933479446480499 ], [ 42.449967397963384, 13.99200435435459 ], [ 42.582772540282583, 14.03810826948571 ], [ 42.719595811118573, 14.071354740712161 ], [ 42.859119527578024, 14.091429224814897 ], [ 43.0, 14.098141875836223 ], [ 43.140880472421969, 14.091429224814897 ], [ 43.280404188881413, 14.071354740712161 ], [ 43.417227459717409, 14.03810826948571 ], [ 43.550032602036602, 13.99200435435459 ], [ 43.677540629719779, 13.933479446480499 ], [ 43.798523570757368, 13.86308802175366 ], [ 43.911816293291167, 13.781497626273975 ], [ 44.01632772647109, 13.689482880579757 ], [ 44.111051368063848, 13.58791848076477 ], [ 44.195074977619683, 13.477771243346989 ], [ 44.267589361846618, 13.360091250051566 ], [ 44.327896167584136, 13.236002158423634 ], [ 44.375414607325936, 13.106690754210618 ], [ 44.409687052521072, 12.973395831513741 ], [ 44.430383440787104, 12.837396496530994 ], [ 44.437304454591235, 12.7 ] ] ] } }
]
}
