{
"type": "FeatureCollection",
"name": "scenario2_satellite_buffers_50km",
"crs": { "type": "name", "properties": { "name": "urn:ogc:def:crs:OGC:1.3:CRS84" } },
"features": [
{ "type": "Feature", "properties": { "name": "Asmara LEO gateway", "scenario": "S2", "radius_km": 50, "capex_usd_mn": 0.6, "monthly_opex_usd_low": 40000, "monthly_opex_usd_high": 90000, "capacity_mbps_low": 50, "capacity_mbps_high": 150, "source": "Generated 50 km buffers around synthetic LEO gateway points." }, "geometry": { "type": "Polygon", "coordinates": [ [ [ 39.37425764205976, 15.3229 ], [ 39.372094825245966, 15.280435556540048 ], [ 39.365627203912837, 15.238371592618114 ], [ 39.354917064789355, 15.197113594266005 ], [ 39.340067552370044, 15.157059511541625 ], [ 39.321221675577064, 15.118595901732039 ], [ 39.298560930506149, 15.082094174758488 ], [ 39.272303552519951, 15.04790697821214 ], [ 39.242702414522221, 15.016364758320732 ], [ 39.210042591653483, 14.987772531609162 ], [ 39.174638615861674, 14.962406900081961 ], [ 39.136831446787433, 14.940513340440315 ], [ 39.096985188136443, 14.922303795173329 ], [ 39.055483581161688, 14.907954590362172 ], [ 39.012726309025439, 14.897604701739278 ], [ 38.969125147631857, 14.891354386991495 ], [ 38.9251, 14.889264198527624 ], [ 38.881074852368137, 14.891354386991495 ], [ 38.837473690974555, 14.897604701739278 ], [ 38.794716418838306, 14.907954590362172 ], [ 38.75321481186355, 14.922303795173329 ], [ 38.713368553212561, 14.940513340440315 ], [ 38.675561384138319, 14.962406900081961 ], [ 38.640157408346511, 14.987772531609162 ], [ 38.607497585477773, 15.016364758320732 ], [ 38.577896447480043, 15.04790697821214 ], [ 38.551639069493845, 15.082094174758488 ], [ 38.52897832442293, 15.118595901732039 ], [ 38.51013244762995, 15.157059511541625 ], [ 38.495282935210639, 15.197113594266005 ], [ 38.484572796087157, 15.238371592618114 ], [ 38.478105174754027, 15.280435556540048 ], [ 38.475942357940234, 15.3229 ], [ 38.478105174754027, 15.365355821847222 ], [ 38.484572796087157, 15.407394252277504 ], [ 38.495282935210639, 15.448610786561719 ], [ 38.51013244762995, 15.488609068180024 ], [ 38.52897832442293, 15.527004684365172 ], [ 38.551639069493845, 15.56342883826739 ], [ 38.577896447480043, 15.597531863482317 ], [ 38.607497585477773, 15.628986548504189 ], [ 38.640157408346511, 15.657491240746857 ], [ 38.675561384138319, 15.682772702083527 ], [ 38.713368553212561, 15.704588690361316 ], [ 38.75321481186355, 15.722730244017971 ], [ 38.794716418838306, 15.737023649737155 ], [ 38.837473690974555, 15.747332075999635 ], [ 38.881074852368137, 15.753556858396658 ], [ 38.9251, 15.755638425648426 ], [ 38.969125147631857, 15.753556858396658 ], [ 39.012726309025439, 15.747332075999635 ], [ 39.055483581161688, 15.737023649737155 ], [ 39.096985188136443, 15.722730244017971 ], [ 39.136831446787433, 15.704588690361316 ], [ 39.174638615861674, 15.682772702083527 ], [ 39.210042591653483, 15.657491240746857 ], [ 39.242702414522221, 15.628986548504189 ], [ 39.272303552519951, 15.597531863482317 ], [ 39.298560930506149, 15.563428838267393 ], [ 39.321221675577064, 15.527004684365172 ], [ 39.340067552370044, 15.488609068180027 ], [ 39.354917064789355, 15.448610786561723 ], [ 39.365627203912837, 15.407394252277504 ], [ 39.372094825245966, 15.365355821847222 ], [ 39.37425764205976, 15.3229 ] ] ] } },
{ "type": "Feature", "properties": { "name": "Massawa LEO gateway", "scenario": "S2", "radius_km": 50, "capex_usd_mn": 0.6, "monthly_opex_usd_low": 40000, "monthly_opex_usd_high": 90000, "capacity_mbps_low": 50, "capacity_mbps_high": 150, "source": "Generated 50 km buffers around synthetic LEO gateway points." }, "geometry": { "type": "Polygon", "coordinates": [ [ [ 39.923757642059755, 15.6081 ], [ 39.921594825245968, 15.565693920502001 ], [ 39.915127203912839, 15.523687615951474 ], [ 39.904417064789357, 15.482486023107308 ], [ 39.889567552370039, 15.44248655869867 ], [ 39.870721675577066, 15.404075267389787 ], [ 39.848060930506144, 15.367623071611328 ], [ 39.82180355251996, 15.333482160663714 ], [ 39.792202414522215, 15.301982555377457 ], [ 39.759542591653492, 15.2734288830856 ], [ 39.724138615861676, 15.248097395734769 ], [ 39.686331446787428, 15.226233261651114 ], [ 39.646485188136438, 15.208048158808467 ], [ 39.60498358116169, 15.193718194447431 ], [ 39.562226309025441, 15.183382172598851 ], [ 39.518625147631866, 15.177140227511805 ], [ 39.4746, 15.175052837216617 ], [ 39.430574852368132, 15.177140227511805 ], [ 39.386973690974557, 15.183382172598851 ], [ 39.3442164188383, 15.193718194447431 ], [ 39.302714811863559, 15.208048158808467 ], [ 39.262868553212563, 15.226233261651114 ], [ 39.225061384138321, 15.248097395734769 ], [ 39.189657408346505, 15.2734288830856 ], [ 39.156997585477782, 15.301982555377457 ], [ 39.127396447480045, 15.333482160663714 ], [ 39.101139069493847, 15.367623071611328 ], [ 39.078478324422932, 15.404075267389787 ], [ 39.059632447629951, 15.44248655869867 ], [ 39.044782935210641, 15.482486023107308 ], [ 39.034072796087159, 15.523687615951474 ], [ 39.027605174754029, 15.565693920502001 ], [ 39.025442357940236, 15.6081 ], [ 39.027605174754029, 15.650497313446609 ], [ 39.034072796087159, 15.692477656740502 ], [ 39.044782935210641, 15.733637090865113 ], [ 39.059632447629951, 15.7735798193257 ], [ 39.078478324422932, 15.811921977904836 ], [ 39.101139069493847, 15.848295301020038 ], [ 39.127396447480045, 15.882350630501561 ], [ 39.156997585477782, 15.913761234432428 ], [ 39.189657408346505, 15.942225905774874 ], [ 39.225061384138321, 15.967471812815731 ], [ 39.262868553212563, 15.989257075966389 ], [ 39.302714811863559, 16.007373048120279 ], [ 39.3442164188383, 16.021646278574242 ], [ 39.386973690974557, 16.031940143433534 ], [ 39.430574852368132, 16.038156128420074 ], [ 39.4746, 16.040234753069846 ], [ 39.518625147631866, 16.038156128420074 ], [ 39.562226309025441, 16.031940143433534 ], [ 39.60498358116169, 16.021646278574242 ], [ 39.646485188136438, 16.007373048120279 ], [ 39.686331446787428, 15.989257075966389 ], [ 39.724138615861676, 15.967471812815731 ], [ 39.759542591653492, 15.942225905774874 ], [ 39.792202414522215, 15.913761234432428 ], [ 39.82180355251996, 15.882350630501561 ], [ 39.848060930506144, 15.848295301020038 ], [ 39.870721675577066, 15.811921977904836 ], [ 39.889567552370039, 15.7735798193257 ], [ 39.904417064789357, 15.733637090865116 ], [ 39.915127203912839, 15.692477656740502 ], [ 39.921594825245968, 15.650497313446609 ], [ 39.923757642059755, 15.6081 ] ] ] } },
{ "type": "Feature", "properties": { "name": "Assab LEO gateway", "scenario": "S2", "radius_km": 50, "capex_usd_mn": 0.6, "monthly_opex_usd_low": 40000, "monthly_opex_usd_high": 90000, "capacity_mbps_low": 50, "capacity_mbps_high": 150, "source": "Generated 50 km buffers around synthetic LEO gateway points." }, "geometry": { "type": "Polygon", "coordinates": [ [ [ 43.18855764205977, 13.0092 ], [ 43.186394825245976, 12.966301098836658 ], [ 43.179927203912847, 12.923808047213722 ], [ 43.169217064789365, 12.882130413315485 ], [ 43.154367552370054, 12.841670106144909 ], [ 43.135521675577074, 12.802817483724478 ], [ 43.112860930506159, 12.765947566152166 ], [ 43.086603552519961, 12.73141639109158 ], [ 43.057002414522231, 12.699557548081426 ], [ 43.024342591653493, 12.670678926453428 ], [ 42.988938615861684, 12.6450597096627 ], [ 42.951131446787443, 12.62294764647913 ], [ 42.911285188136453, 12.6045566267867 ], [ 42.869783581161698, 12.590064586718807 ], [ 42.827026309025442, 12.579611764555171 ], [ 42.783425147631867, 12.573299325257249 ], [ 42.7394, 12.571188367764574 ], [ 42.69537485236814, 12.573299325257249 ], [ 42.651773690974565, 12.579611764555171 ], [ 42.609016418838316, 12.590064586718807 ], [ 42.56751481186356, 12.6045566267867 ], [ 42.527668553212578, 12.62294764647913 ], [ 42.489861384138322, 12.6450597096627 ], [ 42.454457408346514, 12.670678926453428 ], [ 42.421797585477783, 12.699557548081426 ], [ 42.392196447480046, 12.73141639109158 ], [ 42.365939069493855, 12.765947566152166 ], [ 42.34327832442294, 12.802817483724478 ], [ 42.32443244762996, 12.841670106144909 ], [ 42.309582935210649, 12.882130413315485 ], [ 42.298872796087167, 12.923808047213722 ], [ 42.29240517475403, 12.966301098836658 ], [ 42.290242357940244, 13.0092 ], [ 42.29240517475403, 13.052091481627906 ], [ 42.298872796087167, 13.094562559793218 ], [ 42.309582935210649, 13.136204510796576 ], [ 42.32443244762996, 13.176616796994386 ], [ 42.34327832442294, 13.215410905884315 ], [ 42.365939069493855, 13.252214066111661 ], [ 42.392196447480046, 13.286672805545875 ], [ 42.421797585477783, 13.318456318366007 ], [ 42.454457408346514, 13.347259610157408 ], [ 42.489861384138322, 13.372806392328224 ], [ 42.527668553212578, 13.394851699673113 ], [ 42.56751481186356, 13.413184207611819 ], [ 42.609016418838316, 13.427628228483719 ], [ 42.651773690974565, 13.438045369258758 ], [ 42.69537485236814, 13.444335836105525 ], [ 42.7394, 13.44643937441618 ], [ 42.783425147631867, 13.444335836105525 ], [ 42.827026309025442, 13.438045369258758 ], [ 42.869783581161698, 13.427628228483719 ], [ 42.911285188136453, 13.413184207611819 ], [ 42.951131446787443, 13.394851699673113 ], [ 42.988938615861684, 13.372806392328224 ], [ 43.024342591653493, 13.347259610157408 ], [ 43.057002414522231, 13.31845631836601 ], [ 43.086603552519961, 13.286672805545875 ], [ 43.112860930506159, 13.252214066111664 ], [ 43.135521675577074, 13.215410905884315 ], [ 43.154367552370054, 13.176616796994388 ], [ 43.169217064789365, 13.136204510796576 ], [ 43.179927203912847, 13.094562559793218 ], [ 43.186394825245976, 13.052091481627906 ], [ 43.18855764205977, 13.0092 ] ] ] } }
]
}
