{
"type": "FeatureCollection",
"name": "scenario3_domestic_backbone",
"crs": { "type": "name", "properties": { "name": "urn:ogc:def:crs:OGC:1.3:CRS84" } },
"features": [
{ "type": "Feature", "properties": { "segment": "Massawa-Asmara", "role": "landing_to_capital", "source": "Synthetic classroom route, simplified to city-to-city links." }, "geometry": { "type": "LineString", "coordinates": [ [ 39.4746, 15.6081 ], [ 38.9251, 15.3229 ] ] } },
{ "type": "Feature", "properties": { "segment": "Asmara-Keren", "role": "north_highlands", "source": "Synthetic classroom route, simplified to city-to-city links." }, "geometry": { "type": "LineString", "coordinates": [ [ 38.9251, 15.3229 ], [ 38.4511, 15.7778 ] ] } },
{ "type": "Feature", "properties": { "segment": "Asmara-Mendefera", "role": "south_highlands", "source": "Synthetic classroom route, simplified to city-to-city links." }, "geometry": { "type": "LineString", "coordinates": [ [ 38.9251, 15.3229 ], [ 38.8153, 14.8872 ] ] } },
{ "type": "Feature", "properties": { "segment": "Mendefera-Dekemhare", "role": "redundancy_loop", "source": "Synthetic classroom route, simplified to city-to-city links." }, "geometry": { "type": "LineString", "coordinates": [ [ 38.8153, 14.8872 ], [ 39.0475, 15.07 ] ] } },
{ "type": "Feature", "properties": { "segment": "Mendefera-Assab", "role": "south_port_extension", "source": "Synthetic classroom route, simplified to city-to-city links." }, "geometry": { "type": "LineString", "coordinates": [ [ 38.8153, 14.8872 ], [ 42.7394, 13.0092 ] ] } },
{ "type": "Feature", "properties": { "segment": "Asmara-Barentu-Teseney", "role": "western_extension", "source": "Synthetic classroom route, simplified to city-to-city links." }, "geometry": { "type": "LineString", "coordinates": [ [ 38.9251, 15.3229 ], [ 37.5928, 15.1139 ], [ 36.6575, 15.1109 ] ] } }
]
}
